ONEWEB-0108             
1 48076U 21025AL  23359.46648282  .00000372  00000+0  98470-3 0  9999
2 48076  87.8995 140.2883 0001202 100.6491 259.4773 13.13472330134883
ONEWEB-0169             
1 48077U 21025AM  23359.42204948 -.00000210  00000+0 -61074-3 0  9996
2 48077  87.8999 140.3019 0001212  97.1913 262.9354 13.13468932133538
ONEWEB-0176             
1 48210U 21031A   23359.36688022  .00000157  00000+0  38789-3 0  9999
2 48210  87.8971 109.8023 0001592 109.5319 250.5982 13.14501929129441
ONEWEB-0184             
1 48211U 21031B   23359.33991170 -.00000112  00000+0 -33659-3 0  9992
2 48211  87.8982 109.7976 0002492 125.2867 234.8496 13.14501632129416
ONEWEB-0179             
1 48212U 21031C   23359.38590878  .00000143  00000+0  35136-3 0  9992
2 48212  87.8988 109.7843 0001675 102.5102 257.6215 13.14501481129467
ONEWEB-0180             
1 48213U 21031D   23359.34308159 -.00000092  00000+0 -28338-3 0  9999
2 48213  87.8983 109.7959 0001831 100.7088 259.4248 13.14501868129340
ONEWEB-0218             
1 48214U 21031E   23359.36528425 -.00000158  00000+0 -45938-3 0  9990
2 48214  87.8982 109.7936 0002730 117.8685 242.2721 13.14503845129507
ONEWEB-0209             
1 48215U 21031F   23359.35419516  .00002212  00000+0  59323-2 0  9993
2 48215  87.8975 109.8283 0001488 108.2352 251.8939 13.14492272129508
